[
    {
        "CCSDS_OMM_VERS": "3.0",
        "COMMENT": "GENERATED VIA SPACE-TRACK.ORG API",
        "CREATION_DATE": "2025-05-04T02:26:54",
        "ORIGINATOR": "18 SPCS",
        "OBJECT_NAME": "BEIDOU 3 G4",
        "OBJECT_ID": "2023-066A",
        "CENTER_NAME": "EARTH",
        "REF_FRAME": "TEME",
        "TIME_SYSTEM": "UTC",
        "MEAN_ELEMENT_THEORY": "SGP4",
        "EPOCH": "2025-05-03T20:16:14.392992",
        "MEAN_MOTION": "1.00272858",
        "ECCENTRICITY": "0.00052450",
        "INCLINATION": "1.3299",
        "RA_OF_ASC_NODE": "291.5485",
        "ARG_OF_PERICENTER": "176.1601",
        "MEAN_ANOMALY": "218.3044",
        "EPHEMERIS_TYPE": "0",
        "CLASSIFICATION_TYPE": "U",
        "NORAD_CAT_ID": "56564",
        "ELEMENT_SET_NO": "999",
        "REV_AT_EPOCH": "729",
        "BSTAR": "0.00000000000000",
        "MEAN_MOTION_DOT": "-0.00000124",
        "MEAN_MOTION_DDOT": "0.0000000000000",
        "SEMIMAJOR_AXIS": "42164.431",
        "PERIOD": "1436.082",
        "APOAPSIS": "35808.411",
        "PERIAPSIS": "35764.181",
        "OBJECT_TYPE": "PAYLOAD",
        "RCS_SIZE": "LARGE",
        "COUNTRY_CODE": "PRC",
        "LAUNCH_DATE": "2023-05-17",
        "SITE": "XSC",
        "DECAY_DATE": null,
        "FILE": "4718307",
        "GP_ID": "286806250",
        "TLE_LINE0": "0 BEIDOU 3 G4",
        "TLE_LINE1": "1 56564U 23066A   25123.84461103 -.00000124  00000-0  00000-0 0  9991",
        "TLE_LINE2": "2 56564   1.3299 291.5485 0005245 176.1601 218.3044  1.00272858  7297"
    }
]